{
  "type": "FeatureCollection",
  "features": [
    {
      "type": "Feature",
      "properties": {
        "name": "Québec",
        "country": "Canada",
        "service": "AttenteZéro — Services communautaires"
      },
      "geometry": {
        "type": "MultiPolygon",
        "coordinates": [
          [
            [
              [-79.76, 45.00],
              [-76.00, 45.00],
              [-74.70, 45.01],
              [-72.50, 45.01],
              [-71.50, 45.01],
              [-70.50, 45.30],
              [-69.50, 47.40],
              [-68.00, 47.90],
              [-66.80, 47.90],
              [-65.00, 48.00],
              [-64.51, 48.50],
              [-62.50, 49.50],
              [-60.00, 50.20],
              [-59.00, 50.20],
              [-57.10, 51.60],
              [-57.10, 55.00],
              [-60.00, 58.00],
              [-64.00, 60.00],
              [-68.00, 62.58],
              [-72.00, 62.58],
              [-74.00, 62.58],
              [-77.00, 62.00],
              [-79.50, 59.50],
              [-79.76, 56.00],
              [-79.76, 50.00],
              [-79.76, 45.00]
            ]
          ]
        ]
      }
    }
  ]
}
